NORAD_CAT_ID,OBJECT_NAME,OBJECT_TYPE,EPOCH,MEAN_MOTION,ECCENTRICITY,INCLINATION,RA_OF_ASC_NODE,ARG_OF_PERICENTER,MEAN_ANOMALY,BSTAR,MEAN_MOTION_DOT,MEAN_MOTION_DDOT,TLE_LINE0,TLE_LINE1,TLE_LINE2,SEMIMAJOR_AXIS,PERIOD,APOGEE,PERIGEE,DECAYED
52276.0,STARLINK-3778,PAYLOAD,2023-11-20 14:45:23,15.08841434,0.000177,53.2182,280.366,82.9843,277.135,1.4914e-05,-5.1e-07,0.0,0 STARLINK-3778,1 52276U 22041R   23324.61486077 -.00000051  00000-0  14914-4 0  9994,2 52276  53.2182 280.3660 0001770  82.9843 277.1350 15.08841434 88761,6917.876,95.437,540.965,538.517,0.0
52276.0,STARLINK-3778,PAYLOAD,2023-11-21 06:39:14,15.08845619,0.0001513,53.2174,277.39,95.2374,264.8791,6.8213e-05,7.98e-06,0.0,0 STARLINK-3778,1 52276U 22041R   23325.27725572  .00000798  00000-0  68213-4 0  9991,2 52276  53.2174 277.3900 0001513  95.2374 264.8791 15.08845619 87643,6917.863,95.437,540.775,538.682,0.0
52276.0,STARLINK-3778,PAYLOAD,2023-11-22 03:19:15,15.08849133,0.0001744,53.2183,273.5219,105.3472,254.7713,8.5204e-05,1.069e-05,0.0,0 STARLINK-3778,1 52276U 22041R   23326.13837208  .00001069  00000-0  85204-4 0  9998,2 52276  53.2183 273.5219 0001744 105.3472 254.7713 15.08849133 88998,6917.852,95.437,540.924,538.511,0.0
52276.0,STARLINK-3778,PAYLOAD,2023-11-23 01:34:39,15.08845657,0.0001682,53.2171,269.3588,105.427,254.6908,0.00014299,1.989e-05,0.0,0 STARLINK-3778,1 52276U 22041R   23327.06573381  .00001989  00000-0  14299-3 0  9996,2 52276  53.2171 269.3588 0001682 105.4270 254.6908 15.08845657 89134,6917.863,95.437,540.892,538.565,0.0
52276.0,STARLINK-3778,PAYLOAD,2023-11-24 03:00:50,15.08827843,0.0001497,53.2168,264.6016,97.9131,262.2031,-0.00015463,-2.747e-05,0.0,0 STARLINK-3778,1 52276U 22041R   23328.12558708 -.00002747  00000-0 -15463-3 0  9999,2 52276  53.2168 264.6016 0001497  97.9131 262.2031 15.08827843 89295,6917.918,95.438,540.818,538.747,0.0
52276.0,STARLINK-3778,PAYLOAD,2023-11-25 01:16:14,15.08839591,0.0001465,53.2166,260.4407,97.2282,262.8876,4.9599e-05,5.01e-06,0.0,0 STARLINK-3778,1 52276U 22041R   23329.05294450  .00000501  00000-0  49599-4 0  9995,2 52276  53.2166 260.4407 0001465  97.2282 262.8876 15.08839591 89438,6917.882,95.438,540.76,538.733,0.0
52276.0,STARLINK-3778,PAYLOAD,2023-11-25 04:27:00,15.08854141,0.0001603,53.2172,259.8447,111.2257,248.8906,0.00030458,4.565e-05,0.0,0 STARLINK-3778,1 52276U 22041R   23329.18541829  .00004565  00000-0  30458-3 0  9991,2 52276  53.2172 259.8447 0001603 111.2257 248.8906 15.08854141 88237,6917.837,95.437,540.811,538.593,0.0
52276.0,STARLINK-3778,PAYLOAD,2023-11-26 02:42:23,15.08868509,0.0001462,53.217,255.6822,84.3212,275.7947,0.00059025,9.126e-05,0.0,0 STARLINK-3778,1 52276U 22041R   23330.11277275  .00009126  00000-0  59025-3 0  9996,2 52276  53.2170 255.6822 0001462  84.3212 275.7947 15.08868509 88372,6917.793,95.436,540.67,538.647,0.0
52276.0,STARLINK-3778,PAYLOAD,2023-11-26 18:36:16,15.08831418,0.0001563,53.2175,252.7095,114.874,245.2415,-0.00038482,-6.406e-05,0.0,0 STARLINK-3778,1 52276U 22041R   23330.77518519 -.00006406  00000-0 -38482-3 0  9991,2 52276  53.2175 252.7095 0001563 114.8740 245.2415 15.08831418 89691,6917.907,95.438,540.853,538.69,0.0
52276.0,STARLINK-3778,PAYLOAD,2023-11-27 04:08:35,15.08829038,0.0001563,53.2175,250.9234,107.1036,253.0127,-0.00026789,-4.548e-05,0.0,0 STARLINK-3778,1 52276U 22041R   23331.17263323 -.00004548  00000-0 -26789-3 0  9998,2 52276  53.2175 250.9234 0001563 107.1036 253.0127 15.08829038 88533,6917.914,95.438,540.86,538.698,0.0
52276.0,STARLINK-3778,PAYLOAD,2023-11-28 00:48:35,15.08853167,0.0001761,53.217,247.0649,87.0658,273.0536,-0.00021285,-3.675e-05,0.0,0 STARLINK-3778,1 52276U 22041R   23332.03374719 -.00003675  00000-0 -21285-3 0  9992,2 52276  53.2170 247.0649 0001761  87.0658 273.0536 15.08853167 89886,6917.84,95.437,540.923,538.487,0.0
52276.0,STARLINK-3778,PAYLOAD,2023-11-29 03:50:09,15.08849426,0.0001456,53.2162,242.0011,103.773,256.3425,0.00035802,5.416e-05,0.0,0 STARLINK-3778,1 52276U 22041R   23333.15982875  .00005416  00000-0  35802-3 0  9997,2 52276  53.2162 242.0011 0001456 103.7730 256.3425 15.08849426 90058,6917.852,95.437,540.724,538.709,0.0
52276.0,STARLINK-3778,PAYLOAD,2023-11-30 00:30:09,15.08850975,0.0001607,53.2177,238.1267,96.3952,263.7223,-8.1174e-05,-1.58e-05,0.0,0 STARLINK-3778,1 52276U 22041R   23334.02094376 -.00001580  00000-0 -81174-4 0  9998,2 52276  53.2177 238.1267 0001607  96.3952 263.7223 15.08850975 90187,6917.847,95.437,540.824,538.6,0.0
52276.0,STARLINK-3778,PAYLOAD,2023-11-30 22:45:34,15.08838042,0.0001596,53.2167,233.9737,119.4337,240.6815,-9.7927e-05,-1.846e-05,0.0,0 STARLINK-3778,1 52276U 22041R   23334.94831225 -.00001846  00000-0 -97927-4 0  9999,2 52276  53.2167 233.9737 0001596 119.4337 240.6815 15.08838042 90320,6917.886,95.438,540.855,538.647,0.0
52276.0,STARLINK-3778,PAYLOAD,2023-12-01 22:36:20,15.08867787,0.000179,53.216,229.5111,131.9274,228.187,0.00043837,6.701e-05,0.0,0 STARLINK-3778,1 52276U 22041R   23335.94189898  .00006701  00000-0  43837-3 0  9995,2 52276  53.2160 229.5111 0001790 131.9274 228.1870 15.08867787 89255,6917.795,95.436,540.899,538.422,0.0
52276.0,STARLINK-3778,PAYLOAD,2023-12-02 00:11:43,15.08866102,0.0001307,53.2161,229.2163,99.555,260.5589,0.00042608,6.504e-05,0.0,0 STARLINK-3778,1 52276U 22041R   23336.00814127  .00006504  00000-0  42608-3 0  9999,2 52276  53.2161 229.2163 0001307  99.5550 260.5589 15.08866102 90484,6917.801,95.436,540.57,538.761,0.0
52276.0,STARLINK-3778,PAYLOAD,2023-12-02 03:22:29,15.0887279,0.0001265,53.2158,228.6203,103.6303,256.483,0.00051782,7.97e-05,0.0,0 STARLINK-3778,1 52276U 22041R   23336.14061633  .00007970  00000-0  51782-3 0  9991,2 52276  53.2158 228.6203 0001265 103.6303 256.4830 15.08872790 89283,6917.78,95.435,540.52,538.77,0.0
52276.0,STARLINK-3778,PAYLOAD,2023-12-02 22:27:08,15.08830509,0.00016,53.2166,225.0546,129.1296,230.9839,-0.0001352,-2.439e-05,0.0,0 STARLINK-3778,1 52276U 22041R   23336.93551578 -.00002439  00000-0 -13520-3 0  9995,2 52276  53.2166 225.0546 0001600 129.1296 230.9839 15.08830509 89402,6917.909,95.438,540.881,538.668,0.0
52276.0,STARLINK-3778,PAYLOAD,2023-12-03 01:37:55,15.08828195,0.0001201,53.2162,224.4613,94.4318,265.6811,-0.00014662,-2.62e-05,0.0,0 STARLINK-3778,1 52276U 22041R   23337.06799956 -.00002620  00000-0 -14662-3 0  9994,2 52276  53.2162 224.4613 0001201  94.4318 265.6811 15.08828195 90643,6917.916,95.438,540.612,538.951,0.0
52276.0,STARLINK-3778,PAYLOAD,2023-12-03 23:53:19,15.08827651,0.0001254,53.2162,220.2983,78.2577,281.8555,-0.00024334,-4.157e-05,0.0,0 STARLINK-3778,1 52276U 22041R   23337.99536934 -.00004157  00000-0 -24334-3 0  9995,2 52276  53.2162 220.2983 0001254  78.2577 281.8555 15.08827651 89562,6917.918,95.438,540.651,538.916,0.0
52276.0,STARLINK-3778,PAYLOAD,2023-12-04 15:47:11,15.0883406,0.0001621,53.2155,217.3262,57.5038,302.6111,0.00030198,4.521e-05,0.0,0 STARLINK-3778,1 52276U 22041R   23338.65777310  .00004521  00000-0  30198-3 0  9992,2 52276  53.2155 217.3262 0001621  57.5038 302.6111 15.08834060 90880,6917.899,95.438,540.885,538.642,0.0
52276.0,STARLINK-3778,PAYLOAD,2023-12-04 23:44:06,15.08840515,0.000175,53.217,215.8396,56.1389,303.9769,0.0002894,4.321e-05,0.0,0 STARLINK-3778,1 52276U 22041R   23338.98896489  .00004321  00000-0  28940-3 0  9997,2 52276  53.2170 215.8396 0001750  56.1389 303.9769 15.08840515 90936,6917.879,95.438,540.954,538.533,0.0
52276.0,STARLINK-3778,PAYLOAD,2023-12-05 15:37:58,15.08851874,0.0002745,53.2172,212.8662,33.3556,326.7609,0.00010962,1.457e-05,0.0,0 STARLINK-3778,1 52276U 22041R   23339.65136644  .00001457  00000-0  10962-3 0  9994,2 52276  53.2172 212.8662 0002745  33.3556 326.7609 15.08851874 89810,6917.844,95.437,541.608,537.81,0.0
52276.0,STARLINK-3778,PAYLOAD,2023-12-06 01:10:14,15.08878405,0.000246,53.2171,211.0813,37.2036,322.9127,0.00031072,4.665e-05,0.0,0 STARLINK-3778,1 52276U 22041R   23340.04878001  .00004665  00000-0  31072-3 0  9998,2 52276  53.2171 211.0813 0002460  37.2036 322.9127 15.08878405 91093,6917.763,95.435,541.33,537.926,0.0
52276.0,STARLINK-3778,PAYLOAD,2023-12-07 01:01:03,15.08845609,0.0001758,53.2173,206.6223,64.9707,295.1468,-1.5661e-05,-5.37e-06,0.0,0 STARLINK-3778,1 52276U 22041R   23341.04240255 -.00000537  00000-0 -15661-4 0  9996,2 52276  53.2173 206.6223 0001758  64.9707 295.1468 15.08845609 91247,6917.863,95.437,540.944,538.512,0.0
52276.0,STARLINK-3778,PAYLOAD,2023-12-08 00:51:49,15.08873156,0.0001242,53.2164,202.1572,101.2287,258.8844,-0.00046738,-7.725e-05,0.0,0 STARLINK-3778,1 52276U 22041R   23342.03598842 -.00007725  00000-0 -46738-3 0  9998,2 52276  53.2164 202.1572 0001242 101.2287 258.8844 15.08873156 91399,6917.779,95.435,540.503,538.785,0.0
52276.0,STARLINK-3778,PAYLOAD,2023-12-09 15:01:05,15.08838601,0.0001244,53.2168,195.0185,96.302,263.8113,8.8263e-05,1.117e-05,0.0,0 STARLINK-3778,1 52276U 22041R   23343.62575865  .00001117  00000-0  88263-4 0  9991,2 52276  53.2168 195.0185 0001244  96.3020 263.8113 15.08838601 90417,6917.885,95.438,540.61,538.889,0.0
52276.0,STARLINK-3778,PAYLOAD,2023-12-10 19:38:02,15.08837991,0.0001279,53.2151,189.6687,89.2832,270.8306,2.7174e-05,1.45e-06,0.0,0 STARLINK-3778,1 52276U 22041R   23344.81808211  .00000145  00000-0  27174-4 0  9991,2 52276  53.2151 189.6687 0001279  89.2832 270.8306 15.08837991 91813,6917.887,95.438,540.636,538.867,0.0
52276.0,STARLINK-3778,PAYLOAD,2023-12-10 21:13:25,15.08836542,0.0001261,53.2152,189.3716,87.7854,272.3283,5.911e-05,6.53e-06,0.0,0 STARLINK-3778,1 52276U 22041R   23344.88432103  .00000653  00000-0  59110-4 0  9990,2 52276  53.2152 189.3716 0001261  87.7854 272.3283 15.08836542 90600,6917.891,95.438,540.628,538.884,0.0
52276.0,STARLINK-3778,PAYLOAD,2023-12-11 21:04:12,15.08837994,0.0001333,53.2156,184.9123,88.6476,271.4669,5.2592e-05,5.49e-06,0.0,0 STARLINK-3778,1 52276U 22041R   23345.87792246  .00000549  00000-0  52592-4 0  9998,2 52276  53.2156 184.9123 0001333  88.6476 271.4669 15.08837994 90753,6917.887,95.438,540.674,538.829,0.0
